{"type": "FeatureCollection", "features": [ {"type": "Feature", "properties": {"norad_id": 66911, "name": "1998-067XX", "group": "stations", "lat": -47.263259963066886, "lon": 11.644975588577, "alt_km": 411.55857889192885, "timestamp": "2025-12-14T16:47:39.460456+00:00", "meta": {"OBJECT_NAME": "1998-067XX", "OBJECT_ID": "1998-067XX", "EPOCH": "2025-12-13T16:32:49.998912", "MEAN_MOTION": 15.52189321, "ECCENTRICITY": 0.00048024, "INCLINATION": 51.6299, "RA_OF_ASC_NODE": 137.6321, "ARG_OF_PERICENTER": 215.3057, "MEAN_ANOMALY": 144.7616, "EPHEMERIS_TYPE": 0, "CLASSIFICATION_TYPE": "U", "NORAD_CAT_ID": 66911, "ELEMENT_SET_NO": 999, "REV_AT_EPOCH": 175, "BSTAR": 0.0012499181, "MEAN_MOTION_DOT": 0.00077443, "MEAN_MOTION_DDOT": 0}, "tle": {"line1": "1 66911U 98067XX  25347.68946758  .00077443  00000+0  12499-2 0  9998", "line2": "2 66911  51.6299 137.6321 0004802 215.3057 144.7616 15.52189321  1756"}}, "geometry": {"type": "Point", "coordinates": [11.644975588577, -47.263259963066886]}}, {"type": "Feature", "properties": {"norad_id": 66912, "name": "1998-067XY", "group": "stations", "lat": -31.230853352643457, "lon": -18.622323186719296, "alt_km": 413.4895470436759, "timestamp": "2025-12-14T16:47:39.460467+00:00", "meta": {"OBJECT_NAME": "1998-067XY", "OBJECT_ID": "1998-067XY", "EPOCH": "2025-12-13T19:44:43.483200", "MEAN_MOTION": 15.51274122, "ECCENTRICITY": 0.00044845, "INCLINATION": 51.6301, "RA_OF_ASC_NODE": 137.0214, "ARG_OF_PERICENTER": 229.4875, "MEAN_ANOMALY": 130.5724, "EPHEMERIS_TYPE": 0, "CLASSIFICATION_TYPE": "U", "NORAD_CAT_ID": 66912, "ELEMENT_SET_NO": 999, "REV_AT_EPOCH": 177, "BSTAR": 0.00093164651, "MEAN_MOTION_DOT": 0.00055577, "MEAN_MOTION_DDOT": 0}, "tle": {"line1": "1 66912U 98067XY  25347.82272550  .00055577  00000+0  93165-3 0  9991", "line2": "2 66912  51.6301 137.0214 0004484 229.4875 130.5724 15.51274122  1774"}}, "geometry": {"type": "Point", "coordinates": [-18.622323186719296, -31.230853352643457]}}]}